{"type": "FeatureCollection", "features": [ {"type": "Feature", "properties": {"norad_id": 40792, "name": "COSMOS 2251 DEB", "group": "cosmos-2251-debris", "lat": 15.179136825482386, "lon": -138.581593105487, "alt_km": 658.4235184824311, "timestamp": "2025-12-13T13:34:35.438435+00:00", "meta": {"OBJECT_NAME": "COSMOS 2251 DEB", "OBJECT_ID": "1993-036BVV", "EPOCH": "2025-12-08T11:49:11.388288", "MEAN_MOTION": 14.67495133, "ECCENTRICITY": 0.00157828, "INCLINATION": 74.0463, "RA_OF_ASC_NODE": 55.6567, "ARG_OF_PERICENTER": 162.447, "MEAN_ANOMALY": 210.2984, "EPHEMERIS_TYPE": 0, "CLASSIFICATION_TYPE": "U", "NORAD_CAT_ID": 40792, "ELEMENT_SET_NO": 999, "REV_AT_EPOCH": 63122, "BSTAR": 0.0015277322, "MEAN_MOTION_DOT": 8.654e-05, "MEAN_MOTION_DDOT": 0}, "tle": {"line1": "1 40792U 93036BVV 25342.49249292  .00008654  00000+0  15277-2 0  9996", "line2": "2 40792  74.0463  55.6567 0015782 162.4470 210.2984 14.67495133631222"}}, "geometry": {"type": "Point", "coordinates": [-138.581593105487, 15.179136825482386]}}, {"type": "Feature", "properties": {"norad_id": 40793, "name": "COSMOS 2251 DEB", "group": "cosmos-2251-debris", "lat": -59.93533959607829, "lon": 133.91879684813048, "alt_km": 737.6318088849575, "timestamp": "2025-12-13T13:34:35.438444+00:00", "meta": {"OBJECT_NAME": "COSMOS 2251 DEB", "OBJECT_ID": "1993-036BVW", "EPOCH": "2025-11-17T22:59:08.433600", "MEAN_MOTION": 14.0559149, "ECCENTRICITY": 0.02150611, "INCLINATION": 73.9793, "RA_OF_ASC_NODE": 208.5839, "ARG_OF_PERICENTER": 10.058, "MEAN_ANOMALY": 350.4754, "EPHEMERIS_TYPE": 0, "CLASSIFICATION_TYPE": "U", "NORAD_CAT_ID": 40793, "ELEMENT_SET_NO": 999, "REV_AT_EPOCH": 67897, "BSTAR": 0.0015211732, "MEAN_MOTION_DOT": 3.024e-05, "MEAN_MOTION_DDOT": 0}, "tle": {"line1": "1 40793U 93036BVW 25321.95773650  .00003024  00000+0  15212-2 0  9990", "line2": "2 40793  73.9793 208.5839 0215061  10.0580 350.4754 14.05591490678970"}}, "geometry": {"type": "Point", "coordinates": [133.91879684813048, -59.93533959607829]}}, {"type": "Feature", "properties": {"norad_id": 40794, "name": "COSMOS 2251 DEB", "group": "cosmos-2251-debris", "lat": -73.22173127204202, "lon": 14.997111839747374, "alt_km": 590.7939015504417, "timestamp": "2025-12-13T13:34:35.438453+00:00", "meta": {"OBJECT_NAME": "COSMOS 2251 DEB", "OBJECT_ID": "1993-036BVX", "EPOCH": "2025-11-30T04:39:36.279360", "MEAN_MOTION": 14.91253423, "ECCENTRICITY": 0.00103638, "INCLINATION": 73.9758, "RA_OF_ASC_NODE": 149.5129, "ARG_OF_PERICENTER": 264.0956, "MEAN_ANOMALY": 215.1976, "EPHEMERIS_TYPE": 0, "CLASSIFICATION_TYPE": "U", "NORAD_CAT_ID": 40794, "ELEMENT_SET_NO": 999, "REV_AT_EPOCH": 61737, "BSTAR": 0.0047311798, "MEAN_MOTION_DOT": 0.00047418, "MEAN_MOTION_DDOT": 0}, "tle": {"line1": "1 40794U 93036BVX 25334.19416990  .00047418  00000+0  47312-2 0  9993", "line2": "2 40794  73.9758 149.5129 0010363 264.0956 215.1976 14.91253423617370"}}, "geometry": {"type": "Point", "coordinates": [14.997111839747374, -73.22173127204202]}}, {"type": "Feature", "properties": {"norad_id": 40796, "name": "COSMOS 2251 DEB", "group": "cosmos-2251-debris", "lat": -68.75087633795444, "lon": 93.05177857541877, "alt_km": 591.8570548071775, "timestamp": "2025-12-13T13:34:35.438462+00:00", "meta": {"OBJECT_NAME": "COSMOS 2251 DEB", "OBJECT_ID": "1993-036BVZ", "EPOCH": "2025-12-12T16:55:09.916896", "MEAN_MOTION": 14.81698665, "ECCENTRICITY": 0.00560879, "INCLINATION": 74.0118, "RA_OF_ASC_NODE": 142.2573, "ARG_OF_PERICENTER": 278.9039, "MEAN_ANOMALY": 95.9751, "EPHEMERIS_TYPE": 0, "CLASSIFICATION_TYPE": "U", "NORAD_CAT_ID": 40796, "ELEMENT_SET_NO": 999, "REV_AT_EPOCH": 76158, "BSTAR": 0.0013346453, "MEAN_MOTION_DOT": 0.00010785, "MEAN_MOTION_DDOT": 0}, "tle": {"line1": "1 40796U 93036BVZ 25346.70497589  .00010785  00000+0  13346-2 0  9995", "line2": "2 40796  74.0118 142.2573 0056087 278.9039  95.9751 14.81698665761584"}}, "geometry": {"type": "Point", "coordinates": [93.05177857541877, -68.75087633795444]}}, {"type": "Feature", "properties": {"norad_id": 40797, "name": "COSMOS 2251 DEB", "group": "cosmos-2251-debris", "lat": 68.01604775530942, "lon": 139.2066829269608, "alt_km": 508.4754196190679, "timestamp": "2025-12-13T13:34:35.438471+00:00", "meta": {"OBJECT_NAME": "COSMOS 2251 DEB", "OBJECT_ID": "1993-036BWA", "EPOCH": "2025-11-19T18:43:16.602528", "MEAN_MOTION": 15.10509474, "ECCENTRICITY": 0.00703947, "INCLINATION": 73.92, "RA_OF_ASC_NODE": 143.0892, "ARG_OF_PERICENTER": 60.6639, "MEAN_ANOMALY": 300.156, "EPHEMERIS_TYPE": 0, "CLASSIFICATION_TYPE": "U", "NORAD_CAT_ID": 40797, "ELEMENT_SET_NO": 999, "REV_AT_EPOCH": 64297, "BSTAR": 0.00072810385, "MEAN_MOTION_DOT": 0.00012707, "MEAN_MOTION_DDOT": 0}, "tle": {"line1": "1 40797U 93036BWA 25323.78005327  .00012707  00000+0  72810-3 0  9992", "line2": "2 40797  73.9200 143.0892 0070394  60.6639 300.1560 15.10509474642979"}}, "geometry": {"type": "Point", "coordinates": [139.2066829269608, 68.01604775530942]}}, {"type": "Feature", "properties": {"norad_id": 40799, "name": "COSMOS 2251 DEB", "group": "cosmos-2251-debris", "lat": 43.0213365776481, "lon": 112.29604413731786, "alt_km": 540.07693525575, "timestamp": "2025-12-13T13:34:35.438480+00:00", "meta": {"OBJECT_NAME": "COSMOS 2251 DEB", "OBJECT_ID": "1993-036BWC", "EPOCH": "2025-12-09T01:53:34.430208", "MEAN_MOTION": 14.96607637, "ECCENTRICITY": 0.01188532, "INCLINATION": 73.9255, "RA_OF_ASC_NODE": 105.8165, "ARG_OF_PERICENTER": 348.6174, "MEAN_ANOMALY": 11.2323, "EPHEMERIS_TYPE": 0, "CLASSIFICATION_TYPE": "U", "NORAD_CAT_ID": 40799, "ELEMENT_SET_NO": 999, "REV_AT_EPOCH": 49922, "BSTAR": 0.00041300806, "MEAN_MOTION_DOT": 5.391e-05, "MEAN_MOTION_DDOT": 0}, "tle": {"line1": "1 40799U 93036BWC 25343.07887072  .00005391  00000+0  41301-3 0  9995", "line2": "2 40799  73.9255 105.8165 0118853 348.6174  11.2323 14.96607637499224"}}, "geometry": {"type": "Point", "coordinates": [112.29604413731786, 43.0213365776481]}}, {"type": "Feature", "properties": {"norad_id": 40802, "name": "COSMOS 2251 DEB", "group": "cosmos-2251-debris", "lat": 33.171440712244696, "lon": 162.17692327590575, "alt_km": 670.7080867295026, "timestamp": "2025-12-13T13:34:35.438488+00:00", "meta": {"OBJECT_NAME": "COSMOS 2251 DEB", "OBJECT_ID": "1993-036BWF", "EPOCH": "2025-12-09T18:25:18.853248", "MEAN_MOTION": 14.77560234, "ECCENTRICITY": 0.00632236, "INCLINATION": 74.04, "RA_OF_ASC_NODE": 158.8434, "ARG_OF_PERICENTER": 258.1677, "MEAN_ANOMALY": 101.2403, "EPHEMERIS_TYPE": 0, "CLASSIFICATION_TYPE": "U", "NORAD_CAT_ID": 40802, "ELEMENT_SET_NO": 999, "REV_AT_EPOCH": 64365, "BSTAR": 0.0011312786, "MEAN_MOTION_DOT": 8.327e-05, "MEAN_MOTION_DDOT": 0}, "tle": {"line1": "1 40802U 93036BWF 25343.76757932  .00008327  00000+0  11313-2 0  9998", "line2": "2 40802  74.0400 158.8434 0063223 258.1677 101.2403 14.77560234643650"}}, "geometry": {"type": "Point", "coordinates": [162.17692327590575, 33.171440712244696]}}, {"type": "Feature", "properties": {"norad_id": 40803, "name": "COSMOS 2251 DEB", "group": "cosmos-2251-debris", "lat": 19.5971771814133, "lon": -135.5153471023838, "alt_km": 726.520667789533, "timestamp": "2025-12-13T13:34:35.438497+00:00", "meta": {"OBJECT_NAME": "COSMOS 2251 DEB", "OBJECT_ID": "1993-036BWG", "EPOCH": "2025-12-05T22:55:29.451072", "MEAN_MOTION": 14.51792027, "ECCENTRICITY": 0.00362816, "INCLINATION": 74.0122, "RA_OF_ASC_NODE": 64.6912, "ARG_OF_PERICENTER": 281.8159, "MEAN_ANOMALY": 77.8934, "EPHEMERIS_TYPE": 0, "CLASSIFICATION_TYPE": "U", "NORAD_CAT_ID": 40803, "ELEMENT_SET_NO": 999, "REV_AT_EPOCH": 58654, "BSTAR": 0.00062935795, "MEAN_MOTION_DOT": 2.525e-05, "MEAN_MOTION_DDOT": 0}, "tle": {"line1": "1 40803U 93036BWG 25339.95520198  .00002525  00000+0  62936-3 0  9999", "line2": "2 40803  74.0122  64.6912 0036281 281.8159  77.8934 14.51792027586549"}}, "geometry": {"type": "Point", "coordinates": [-135.5153471023838, 19.5971771814133]}}, {"type": "Feature", "properties": {"norad_id": 40808, "name": "COSMOS 2251 DEB", "group": "cosmos-2251-debris", "lat": 55.33631344673109, "lon": -60.5683678968642, "alt_km": 660.1027339282718, "timestamp": "2025-12-13T13:34:35.438506+00:00", "meta": {"OBJECT_NAME": "COSMOS 2251 DEB", "OBJECT_ID": "1993-036BWM", "EPOCH": "2025-12-12T17:28:24.743424", "MEAN_MOTION": 14.67479403, "ECCENTRICITY": 0.00092278, "INCLINATION": 74.041, "RA_OF_ASC_NODE": 145.4936, "ARG_OF_PERICENTER": 182.1345, "MEAN_ANOMALY": 195.7768, "EPHEMERIS_TYPE": 0, "CLASSIFICATION_TYPE": "U", "NORAD_CAT_ID": 40808, "ELEMENT_SET_NO": 999, "REV_AT_EPOCH": 63619, "BSTAR": 0.00245787, "MEAN_MOTION_DOT": 0.00013931, "MEAN_MOTION_DDOT": 0}, "tle": {"line1": "1 40808U 93036BWM 25346.72806416  .00013931  00000+0  24579-2 0  9990", "line2": "2 40808  74.0410 145.4936 0009227 182.1345 195.7768 14.67479403636197"}}, "geometry": {"type": "Point", "coordinates": [-60.5683678968642, 55.33631344673109]}}, {"type": "Feature", "properties": {"norad_id": 40810, "name": "COSMOS 2251 DEB", "group": "cosmos-2251-debris", "lat": 12.043462497152102, "lon": 76.66618333437543, "alt_km": 709.3778982311933, "timestamp": "2025-12-13T13:34:35.438515+00:00", "meta": {"OBJECT_NAME": "COSMOS 2251 DEB", "OBJECT_ID": "1993-036BWP", "EPOCH": "2025-12-11T13:47:10.605120", "MEAN_MOTION": 14.58706242, "ECCENTRICITY": 0.0018546, "INCLINATION": 74.0365, "RA_OF_ASC_NODE": 76.9551, "ARG_OF_PERICENTER": 228.6386, "MEAN_ANOMALY": 131.3185, "EPHEMERIS_TYPE": 0, "CLASSIFICATION_TYPE": "U", "NORAD_CAT_ID": 40810, "ELEMENT_SET_NO": 999, "REV_AT_EPOCH": 61666, "BSTAR": 0.0012743494, "MEAN_MOTION_DOT": 5.935e-05, "MEAN_MOTION_DDOT": 0}, "tle": {"line1": "1 40810U 93036BWP 25345.57442830  .00005935  00000+0  12743-2 0  9996", "line2": "2 40810  74.0365  76.9551 0018546 228.6386 131.3185 14.58706242616668"}}, "geometry": {"type": "Point", "coordinates": [76.66618333437543, 12.043462497152102]}}]}